[{"OBJECT_NAME":"STARLINK-5950","OBJECT_ID":"2023-083AP","EPOCH":"2026-03-09T22:00:01.999584","MEAN_MOTION":15.09427905,"ECCENTRICITY":0.00019698,"INCLINATION":43.0011,"RA_OF_ASC_NODE":67.6777,"ARG_OF_PERICENTER":271.5612,"MEAN_ANOMALY":63.9854,"EPHEMERIS_TYPE":0,"CLASSIFICATION_TYPE":"U","NORAD_CAT_ID":56913,"ELEMENT_SET_NO":999,"REV_AT_EPOCH":572,"BSTAR":0.004564583,"MEAN_MOTION_DOT":0.00074844,"MEAN_MOTION_DDOT":0},{"OBJECT_NAME":"DMSP 5D-2 F11 DEB","OBJECT_ID":"1991-082AJ","EPOCH":"2026-03-09T06:39:32.486112","MEAN_MOTION":15.08629375,"ECCENTRICITY":0.00070318,"INCLINATION":98.5181,"RA_OF_ASC_NODE":189.4283,"ARG_OF_PERICENTER":237.8685,"MEAN_ANOMALY":152.6153,"EPHEMERIS_TYPE":0,"CLASSIFICATION_TYPE":"U","NORAD_CAT_ID":28321,"ELEMENT_SET_NO":999,"REV_AT_EPOCH":14288,"BSTAR":0.0082823802,"MEAN_MOTION_DOT":0.00131946,"MEAN_MOTION_DDOT":0}]
